INNOSAT 3 (RS92S0)      
1 64894U 25155U   26168.57188913  .00029779  00000+0  65655-3 0  9997
2 64894  97.4490 140.0770 0006599 150.1327 210.0298 15.43848626 81023
KNACKSAT-2              
1 67683U 98067XZ  26168.60673955  .00040994  00000+0  49993-3 0  9996
2 67683  51.6314 292.3670 0009087 217.1010 142.9356 15.60014370 20343
