OBJECT_NAME,OBJECT_ID,EPOCH,MEAN_MOTION,ECCENTRICITY,INCLINATION,RA_OF_ASC_NODE,ARG_OF_PERICENTER,MEAN_ANOMALY,EPHEMERIS_TYPE,CLASSIFICATION_TYPE,NORAD_CAT_ID,ELEMENT_SET_NO,REV_AT_EPOCH,BSTAR,MEAN_MOTION_DOT,MEAN_MOTION_DDOT
INNOSAT 3 (RS92S0),2025-155U,2026-06-17T13:43:31.220832,15.43848626,.00065997,97.4490,140.0770,150.1327,210.0298,0,U,64894,999,8102,.65655161E-3,.29779E-3,0
KNACKSAT-2,1998-067XZ,2026-06-17T14:33:42.297120,15.60014370,.00090877,51.6314,292.3670,217.1010,142.9356,0,U,67683,999,2034,.49993326E-3,.40994E-3,0
